*******************************************************************************
JPL/HORIZONS                591 Irmgard (A906 EE)          2020-Jun-22 09:15:09
Rec #:     591 (+COV) Soln.date: 2020-May-20_01:08:58   # obs: 2578 (1906-2020)
 
IAU76/J2000 helio. ecliptic osc. elements (au, days, deg., period=Julian yrs):
 
  EPOCH=  2456630.5 ! 2013-Dec-04.00 (TDB)         Residual RMS= .25442
   EC= .2073858371649666   QR= 2.123216722663073   TP= 2457408.4455939694
   OM= 334.2969183163595   W=  217.4380331817616   IN= 12.49024137495498
   A= 2.678751935328435    MA= 185.1141981436191   ADIST= 3.234287147993797
   PER= 4.38437            N= .224804663           ANGMOM= .027542391
   DAN= 3.06888            DDN= 2.20109            L= 191.0746858
   B= -7.5547331           MOID= 1.13814998        TP= 2016-Jan-20.9455939694
 
Asteroid physical parameters (km, seconds, rotational period in hours):
   GM= n.a.                RAD= 25.93              ROTPER= 7.35
   H= 10.7                 G= .150                 B-V= .693
                           ALBEDO= .0364           STYP= X
 
ASTEROID comments: 
1: soln ref.= JPL#38, OCC=0
2: source=ORB
*******************************************************************************
 
 
*******************************************************************************
Ephemeris / WWW_USER Mon Jun 22 09:15:09 2020 Pasadena, USA      / Horizons
*******************************************************************************
Target body name: 591 Irmgard (A906 EE)           {source: JPL#38}
Center body name: Solar System Barycenter (0)     {source: DE431}
Center-site name: BODY CENTER
*******************************************************************************
Start time      : A.D. 1969-Jun-28 00:00:00.0000 TDB
Stop  time      : A.D. 2071-May-04 00:00:00.0000 TDB
Step-size       : 7200 minutes
*******************************************************************************
Center geodetic : 0.00000000,0.00000000,0.0000000 {E-lon(deg),Lat(deg),Alt(km)}
Center cylindric: 0.00000000,0.00000000,0.0000000 {E-lon(deg),Dxy(km),Dz(km)}
Center radii    : (undefined)                                                  
Small perturbers: Yes                             {source: SB431-N16}
Output units    : AU-D
Output type     : GEOMETRIC cartesian states
Output format   : 2 (position and velocity)
Reference frame : Ecliptic of J2000.0
*******************************************************************************
Initial IAU76/J2000 heliocentric ecliptic osculating elements (au, days, deg.):
  EPOCH=  2456630.5 ! 2013-Dec-04.00 (TDB)         Residual RMS= .25442        
   EC= .2073858371649666   QR= 2.123216722663073   TP= 2457408.4455939694      
   OM= 334.2969183163595   W=  217.4380331817616   IN= 12.49024137495498       
  Equivalent ICRF heliocentric equatorial cartesian coordinates (au, au/d):
   X= 3.098435432224410E+00  Y= 5.526815380973589E-01  Z= 7.382669791283610E-01
  VX=-2.423198468969123E-03 VY= 6.841306355335314E-03 VZ= 4.464146752980284E-03
Asteroid physical parameters (km, seconds, rotational period in hours):        
   GM= n.a.                RAD= 25.93              ROTPER= 7.35                
   H= 10.7                 G= .150                 B-V= .693                   
                           ALBEDO= .0364           STYP= X                     
*******************************************************************************
            JDTDB,            Calendar Date (TDB),        delta-T,                      X,                      Y,                      Z,                     VX,                     VY,                     VZ,
******************************************************************************************************************************************************************************************************************
$$SOE
2472740.500000000, A.D. 2058-Jan-12 00:00:00.0000,      69.184197,  2.785787347277584E+00,  1.471230303326579E+00,  5.657561896975428E-01, -4.674242725267853E-03,  7.150596990228764E-03,  9.551411170127699E-04,
2472745.500000000, A.D. 2058-Jan-17 00:00:00.0000,      69.184339,  2.762103990847090E+00,  1.506816405257711E+00,  5.704681778039852E-01, -4.798983749577813E-03,  7.083544711884904E-03,  9.296064470089030E-04,
2472750.500000000, A.D. 2058-Jan-22 00:00:00.0000,      69.184480,  2.737798684094188E+00,  1.542062756166239E+00,  5.750517779979848E-01, -4.923020173402186E-03,  7.014695857294397E-03,  9.037860747615720E-04,
2472755.500000000, A.D. 2058-Jan-27 00:00:00.0000,      69.184618,  2.712874990564325E+00,  1.576960362095569E+00,  5.795055635985203E-01, -5.046335712857699E-03,  6.944045953105190E-03,  8.776807303032781E-04,
2472760.500000000, A.D. 2058-Feb-01 00:00:00.0000,      69.184750,  2.687336556236545E+00,  1.611500206078975E+00,  5.838281115463834E-01, -5.168913675566929E-03,  6.871590269575179E-03,  8.512911327977381E-04,
2472765.500000000, A.D. 2058-Feb-06 00:00:00.0000,      69.184875,  2.661187111608601E+00,  1.645673246872281E+00,  5.880180023569951E-01, -5.290736943540016E-03,  6.797323826479105E-03,  8.246179934241973E-04,
2472770.500000000, A.D. 2058-Feb-11 00:00:00.0000,      69.184992,  2.634430473868604E+00,  1.679470417716930E+00,  5.920738200879563E-01, -5.411787955671575E-03,  6.721241399359551E-03,  7.976620183879199E-04,
2472775.500000000, A.D. 2058-Feb-16 00:00:00.0000,      69.185102,  2.607070549155259E+00,  1.712882625135187E+00,  5.959941523219945E-01, -5.532048689797893E-03,  6.643337526136773E-03,  7.704239120731534E-04,
2472780.500000000, A.D. 2058-Feb-21 00:00:00.0000,      69.185206,  2.579111334909062E+00,  1.745900747759265E+00,  5.997775901660537E-01, -5.651500644246106E-03,  6.563606514046932E-03,  7.429043803426212E-04,
2472785.500000000, A.D. 2058-Feb-26 00:00:00.0000,      69.185301,  2.550556922317063E+00,  1.778515635195708E+00,  6.034227282671646E-01, -5.770124818874440E-03,  6.482042446777560E-03,  7.151041339356360E-04,
2472790.500000000, A.D. 2058-Mar-03 00:00:00.0000,      69.185385,  2.521411498853260E+00,  1.810718106925514E+00,  6.069281648452866E-01, -5.887901695843005E-03,  6.398639191621697E-03,  6.870238918388783E-04,
2472795.500000000, A.D. 2058-Mar-08 00:00:00.0000,      69.185457,  2.491679350914935E+00,  1.842498951240393E+00,  6.102925017427996E-01, -6.004811220495205E-03,  6.313390406845433E-03,  6.586643845890708E-04,
2472800.500000000, A.D. 2058-Mar-13 00:00:00.0000,      69.185518,  2.461364866554828E+00,  1.873848924217496E+00,  6.135143444907966E-01, -6.120832782031559E-03,  6.226289549779013E-03,  6.300263577347582E-04,
2472805.500000000, A.D. 2058-Mar-18 00:00:00.0000,      69.185568,  2.430472538311629E+00,  1.904758748736466E+00,  6.165923023933232E-01, -6.235945193473368E-03,  6.137329885577293E-03,  6.011105755347164E-04,
2472810.500000000, A.D. 2058-Mar-23 00:00:00.0000,      69.185607,  2.399006966142074E+00,  1.935219113541102E+00,  6.195249886303055E-01, -6.350126671151373E-03,  6.046504496285511E-03,  5.719178247049333E-04,
2472815.500000000, A.D. 2058-Mar-28 00:00:00.0000,      69.185636,  2.366972860455902E+00,  1.965220672347318E+00,  6.223110203792053E-01, -6.463354814088017E-03,  5.953806290342892E-03,  5.424489181779011E-04,
2472820.500000000, A.D. 2058-Apr-02 00:00:00.0000,      69.185651,  2.334375045254325E+00,  1.994754043000378E+00,  6.249490189557839E-01, -6.575606583167378E-03,  5.859228012830158E-03,  5.127046990122023E-04,
2472825.500000000, A.D. 2058-Apr-07 00:00:00.0000,      69.185652,  2.301218461373708E+00,  2.023809806685522E+00,  6.274376099750293E-01, -6.686858279850589E-03,  5.762762256579831E-03,  4.826860445579414E-04,
2472830.500000000, A.D. 2058-Apr-12 00:00:00.0000,      69.185640,  2.267508169837132E+00,  2.052378507196281E+00,  6.297754235336330E-01, -6.797085524286145E-03,  5.664401474138214E-03,  4.523938709141068E-04,
2472835.500000000, A.D. 2058-Apr-17 00:00:00.0000,      69.185618,  2.233249355317058E+00,  2.080450650264631E+00,  6.319610944154789E-01, -6.906263232761500E-03,  5.564137990529672E-03,  4.218291376708578E-04,
2472840.500000000, A.D. 2058-Apr-22 00:00:00.0000,      69.185585,  2.198447329712357E+00,  2.108016702956893E+00,  6.339932623214970E-01, -7.014365594506774E-03,  5.461964016783472E-03,  3.909928529107238E-04,
2472845.500000000, A.D. 2058-Apr-27 00:00:00.0000,      69.185541,  2.163107535842852E+00,  2.135067093139138E+00,  6.358705721251178E-01, -7.121366047897116E-03,  5.357871664215262E-03,  3.598860784409609E-04,
2472850.500000000, A.D. 2058-May-02 00:00:00.0000,      69.185485,  2.127235551264241E+00,  2.161592209015938E+00,  6.375916741544181E-01, -7.227237256108117E-03,  5.251852959487187E-03,  3.285099352378811E-04,
2472855.500000000, A.D. 2058-May-07 00:00:00.0000,      69.185416,  2.090837092206001E+00,  2.187582398746480E+00,  6.391552245020119E-01, -7.331951082271251E-03,  5.143899860506181E-03,  2.968656090995114E-04,
2472860.500000000, A.D. 2058-May-12 00:00:00.0000,      69.185337,  2.053918017634712E+00,  2.213027970142429E+00,  6.405598853637415E-01, -7.435478564154664E-03,  5.034004273241262E-03,  2.649543565174496E-04,
2472865.500000000, A.D. 2058-May-17 00:00:00.0000,      69.185249,  2.016484333445171E+00,  2.237919190452388E+00,  6.418043254073328E-01, -7.537789888360206E-03,  4.922158069566000E-03,  2.327775107963595E-04,
2472870.500000000, A.D. 2058-May-22 00:00:00.0000,      69.185154,  1.978542196781867E+00,  2.262246286238356E+00,  6.428872201723430E-01, -7.638854363963851E-03,  4.808353106213786E-03,  2.003364884544654E-04,
2472875.500000000, A.D. 2058-May-27 00:00:00.0000,      69.185051,  1.940097920493829E+00,  2.285999443349692E+00,  6.438072525028089E-01, -7.738640395523513E-03,  4.692581244816668E-03,  1.676327958941900E-04,
